county,county_code,territory,zipcode,town,area
ALLEGANY,1,1502,21502,CRESAPTOWN,160
ALLEGANY,1,1502,21502,CUMBERLAND,160
ALLEGANY,1,1521,21521,BARTON,160
ALLEGANY,1,1524,21524,CORRIGANVILLE,160
ALLEGANY,1,1529,21529,ELLERSLIE,160
ALLEGANY,1,1530,21530,FLINTSTONE,160
ALLEGANY,1,1532,21532,FROSTBURG,160
ALLEGANY,1,1539,21539,LONACONING,160
ALLEGANY,1,1540,21540,LUKE,160
ALLEGANY,1,1542,21542,CORRIGANVILLE,160
ALLEGANY,1,1543,21543,MIDLOTHIAN,160
ALLEGANY,1,1545,21545,MT SAVAGE,160
ALLEGANY,1,1555,21555,OLDTOWN,160
ALLEGANY,1,1557,21557,RAWLINGS,160
ALLEGANY,1,1560,21560,SPRING GAP,160
ALLEGANY,1,1562,21562,WESTERNPORT,160
ALLEGANY,1,1766,21766,LITTLE ORLEANS,160
ANNE ARUNDEL,2,701,20701,ANNAPOLIS JUNC,240
ANNE ARUNDEL,2,711,20711,LOTHIAN,240
ANNE ARUNDEL,2,714,20714,NORTH BEACH,240
ANNE ARUNDEL,2,724,20724,LAUREL,240
ANNE ARUNDEL,2,733,20733,CHURCHTON,240
ANNE ARUNDEL,2,751,20751,DEALE,240
ANNE ARUNDEL,2,754,20754,DUNKIRK,240
ANNE ARUNDEL,2,755,20755,FORT MEADE,240
ANNE ARUNDEL,2,755,20755,FT MEADE,240
ANNE ARUNDEL,2,758,20758,FRIENDSHIP,240
ANNE ARUNDEL,2,764,20764,SHADY SIDE,240
ANNE ARUNDEL,2,765,20765,GALESVILLE,240
ANNE ARUNDEL,2,776,20776,HARWOOD,240
ANNE ARUNDEL,2,778,20778,WEST RIVER,240
ANNE ARUNDEL,2,779,20779,TRACYS LANDING,240
ANNE ARUNDEL,2,794,20794,JESSUP,240
ANNE ARUNDEL,2,1012,21012,ARNOLD,240
ANNE ARUNDEL,2,1032,21032,CROWNSVILLE,240
ANNE ARUNDEL,2,1035,21035,DAVIDSONVILLE,240
ANNE ARUNDEL,2,1037,21037,EDGEWATER,240
ANNE ARUNDEL,2,1054,21054,GAMBRILLS,240
ANNE ARUNDEL,2,1056,21056,GIBSON ISLAND,240
ANNE ARUNDEL,2,1060,21060,GLEN BURNIE,240
ANNE ARUNDEL,2,1061,21061,FERNDALE,240
ANNE ARUNDEL,2,1061,21061,GLEN BURNIE,240
ANNE ARUNDEL,2,1076,21076,HANOVER,240
ANNE ARUNDEL,2,1077,21077,HARMANS,240
ANNE ARUNDEL,2,1090,21090,LINTHICUM,240
ANNE ARUNDEL,2,1090,21090,LINTHICUM HGTS,240
ANNE ARUNDEL,2,1108,21108,MILLERSVILLE,240
ANNE ARUNDEL,2,1113,21113,ODENTON,240
ANNE ARUNDEL,2,1114,21114,CROFTON,240
ANNE ARUNDEL,2,1122,21122,PASADENA,240
ANNE ARUNDEL,2,1140,21140,RIVA,240
ANNE ARUNDEL,2,1144,21144,SEVERN,240
ANNE ARUNDEL,2,1146,21146,SEVERNA PARK,240
ANNE ARUNDEL,2,1146,21146,SEVERNA PK,240
ANNE ARUNDEL,2,1225,21225,BALTO,240
ANNE ARUNDEL,2,1226,21226,BALTIMORE,240
ANNE ARUNDEL,2,1240,21240,BALTIMORE,240
ANNE ARUNDEL,2,1401,21401,ANNAPOLIS,240
ANNE ARUNDEL,2,1402,21402,ANNAPOLIS,240
ANNE ARUNDEL,2,1403,21403,ANNAPOLIS,240
ANNE ARUNDEL,2,1405,21405,ANNAPOLIS,240
ANNE ARUNDEL,2,1405,21405,SHERWOOD FOREST,240
ANNE ARUNDEL,2,1409,21409,ANNAPOLIS,240
BALTIMORE,3,1013,21013,BALDWIN,260
BALTIMORE,3,1030,21030,COCKEYSVILLE,260
BALTIMORE,3,1030,21030,HUNT VALLEY,260
BALTIMORE,3,1031,21031,COCKEYSVILLE,260
BALTIMORE,3,1043,21043,ELLICOTT CITY,260
BALTIMORE,3,1051,21051,FORK,260
BALTIMORE,3,1052,21052,FORT HOWARD,260
BALTIMORE,3,1053,21053,FREELAND,260
BALTIMORE,3,1057,21057,GLEN ARM,260
BALTIMORE,3,1071,21071,GLYNDON,260
BALTIMORE,3,1074,21074,HAMPSTEAD,260
BALTIMORE,3,1075,21075,ELKRIDGE,260
BALTIMORE,3,1082,21082,HYDES,260
BALTIMORE,3,1085,21085,JOPPA,260
BALTIMORE,3,1087,21087,BRADSHAW,260
BALTIMORE,3,1093,21093,LTHRVL TIMONIUM,260
BALTIMORE,3,1093,21093,LUTHERVILLE,260
BALTIMORE,3,1102,21102,MANCHESTER,260
BALTIMORE,3,1105,21105,MARYLAND LINE,260
BALTIMORE,3,1111,21111,MONKTON,260
BALTIMORE,3,1117,21117,OWINGS MILLS,260
BALTIMORE,3,1120,21120,PARKTON,260
BALTIMORE,3,1128,21128,PERRY HALL,260
BALTIMORE,3,1131,21131,PHOENIX,260
BALTIMORE,3,1133,21133,RANDALLSTOWN,260
BALTIMORE,3,1136,21136,REISTERSTOWN,260
BALTIMORE,3,1152,21152,GLENCOE,260
BALTIMORE,3,1152,21152,SPARKS,260
BALTIMORE,3,1153,21153,STEVENSON,260
BALTIMORE,3,1155,21155,UPPERCO,260
BALTIMORE,3,1156,21156,UPPER FALLS,260
BALTIMORE,3,1161,21161,WHITE HALL,260
BALTIMORE,3,1162,21162,WHITE MARSH,260
BALTIMORE,3,1163,21163,WOODSTOCK,260
BALTIMORE,3,1201,21201,BALTIMORE,260
BALTIMORE,3,1202,21202,BALTIMORE,260
BALTIMORE,3,1204,21204,BALTIMORE,260
BALTIMORE,3,1204,21204,TOWSON,260
BALTIMORE,3,1205,21205,BALTIMORE,260
BALTIMORE,3,1206,21206,BALTIMORE,260
BALTIMORE,3,1207,21207,BALTIMORE,260
BALTIMORE,3,1208,21208,BALTIMORE,260
BALTIMORE,3,1209,21209,BALTIMORE,260
BALTIMORE,3,1210,21210,BALTIMORE,260
BALTIMORE,3,1211,21211,BALTIMORE,260
BALTIMORE,3,1212,21212,BALTIMORE,260
BALTIMORE,3,1213,21213,BALTIMORE,260
BALTIMORE,3,1214,21214,BALTIMORE,260
BALTIMORE,3,1215,21215,BALTIMORE,260
BALTIMORE,3,1216,21216,BALTIMORE,260
BALTIMORE,3,1217,21217,BALTIMORE,260
BALTIMORE,3,1218,21218,BALTIMORE,260
BALTIMORE,3,1219,21219,BALTIMORE,260
BALTIMORE,3,1219,21219,EDGEMERE,260
BALTIMORE,3,1220,21220,BALTIMORE,260
BALTIMORE,3,1220,21220,MIDDLE RIVER,260
BALTIMORE,3,1221,21221,BALTIMORE,260
BALTIMORE,3,1221,21221,ESSEX,260
BALTIMORE,3,1222,21222,BALTIMORE,260
BALTIMORE,3,1222,21222,DUNDALK,260
BALTIMORE,3,1223,21223,BALTIMORE,260
BALTIMORE,3,1224,21224,BALTIMORE,260
BALTIMORE,3,1225,21225,BALTO,260
BALTIMORE,3,1226,21226,BALTIMORE,260
BALTIMORE,3,1227,21227,BALTIMORE,260
BALTIMORE,3,1227,21227,ARBUTUS,260
BALTIMORE,3,1228,21228,BALTIMORE,260
BALTIMORE,3,1228,21228,CATONSVILLE,260
BALTIMORE,3,1229,21229,BALTIMORE,260
BALTIMORE,3,1230,21230,BALTIMORE,260
BALTIMORE,3,1231,21231,BALTIMORE,260
BALTIMORE,3,1233,21233,BALTIMORE,260
BALTIMORE,3,1234,21234,BALTIMORE,260
BALTIMORE,3,1236,21236,BALTIMORE,260
BALTIMORE,3,1236,21236,PERRY HALL,260
BALTIMORE,3,1237,21237,BALTIMORE,260
BALTIMORE,3,1237,21237,ROSEDALE,260
BALTIMORE,3,1239,21239,BALTIMORE,260
BALTIMORE,3,1244,21244,BALTIMORE,260
BALTIMORE,3,1250,21250,CATONSVILLE,260
BALTIMORE,3,1250,21250,BALTIMORE,260
BALTIMORE,3,1252,21252,TOWSON,260
BALTIMORE,3,1286,21286,BALTIMORE,260
BALTIMORE,3,1286,21286,TOWSON,260
CALVERT,4,615,20615,BROOMES ISLAND,230
CALVERT,4,629,20629,DOWELL,230
CALVERT,4,639,20639,HUNTINGTOWN,230
CALVERT,4,657,20657,LUSBY,230
CALVERT,4,676,20676,PORT REPUBLIC,230
CALVERT,4,678,20678,PR FREDERICK,230
CALVERT,4,685,20685,ST LEONARD,230
CALVERT,4,688,20688,SOLOMONS,230
CALVERT,4,689,20689,SUNDERLAND,230
CALVERT,4,714,20714,NORTH BEACH,230
CALVERT,4,732,20732,CHESAPEAKE BCH,230
CALVERT,4,736,20736,OWINGS,230
CALVERT,4,754,20754,DUNKIRK,230
CAROLINE,5,1629,21629,DENTON,330
CAROLINE,5,1632,21632,FEDERALSBURG,330
CAROLINE,5,1636,21636,GOLDSBORO,330
CAROLINE,5,1639,21639,GREENSBORO,330
CAROLINE,5,1640,21640,HENDERSON,330
CAROLINE,5,1641,21641,HILLSBORO,330
CAROLINE,5,1649,21649,MARYDEL,330
CAROLINE,5,1655,21655,PRESTON,330
CAROLINE,5,1660,21660,RIDGELY,330
CARROLL,6,1048,21048,FINKSBURG,270
CARROLL,6,1074,21074,HAMPSTEAD,270
CARROLL,6,1102,21102,MANCHESTER,270
CARROLL,6,1104,21104,MARRIOTTSVILLE,270
CARROLL,6,1136,21136,REISTERSTOWN,270
CARROLL,6,1155,21155,UPPERCO,270
CARROLL,6,1157,21157,WESTMINSTER,270
CARROLL,6,1158,21158,WESTMINSTER,270
CARROLL,6,1757,21757,KEYMAR,270
CARROLL,6,1776,21776,NEW WINDSOR,270
CARROLL,6,1784,21784,ELDERSBURG,270
CARROLL,6,1787,21787,TANEYTOWN,270
CARROLL,6,1791,21791,UNION BRIDGE,270
CARROLL,6,1797,21797,WOODBINE,270
CECIL,7,1901,21901,NORTH EAST,290
CECIL,7,1903,21903,PERRYVILLE,290
CECIL,7,1904,21904,PORT DEPOSIT,290
CECIL,7,1911,21911,RISING SUN,290
CECIL,7,1912,21912,WARWICK,290
CECIL,7,1913,21913,CECILTON,290
CECIL,7,1914,21914,CHARLESTOWN,290
CECIL,7,1915,21915,CHESAPEAKE CITY,290
CECIL,7,1917,21917,COLORA,290
CECIL,7,1918,21918,CONOWINGO,290
CECIL,7,1919,21919,EARLEVILLE,290
CECIL,7,1920,21920,ELK MILLS,290
CECIL,7,1921,21921,ELKTON,290
CECIL,7,1930,21930,GEORGETOWN,290
CHARLES,8,601,20601,WALDORF,210
CHARLES,8,602,20602,WALDORF,210
CHARLES,8,603,20603,WALDORF,210
CHARLES,8,611,20611,BEL ALTON,210
CHARLES,8,612,20612,BENEDICT,210
CHARLES,8,613,20613,BRANDYWINE,210
CHARLES,8,616,20616,BRYANS ROAD,210
CHARLES,8,617,20617,BRYANTOWN,210
CHARLES,8,622,20622,CHARLOTTE HALL,210
CHARLES,8,625,20625,COBB ISLAND,210
CHARLES,8,632,20632,FAULKNER,210
CHARLES,8,637,20637,HUGHESVILLE,210
CHARLES,8,640,20640,INDIAN HEAD,210
CHARLES,8,645,20645,ISSUE,210
CHARLES,8,646,20646,LA PLATA,210
CHARLES,8,658,20658,MARBURY,210
CHARLES,8,659,20659,MECHANICSVILLE,210
CHARLES,8,662,20662,NANJEMOY,210
CHARLES,8,664,20664,NEWBURG,210
CHARLES,8,675,20675,POMFRET,210
CHARLES,8,677,20677,PORT TOBACCO,210
CHARLES,8,693,20693,WELCOME,210
CHARLES,8,695,20695,WHITE PLAINS,210
DORCHESTER,9,1613,21613,CAMBRIDGE,340
DORCHESTER,9,1622,21622,CHURCH CREEK,340
DORCHESTER,9,1626,21626,CRAPO,340
DORCHESTER,9,1627,21627,CROCHERON,340
DORCHESTER,9,1631,21631,EAST NEW MARKET,340
DORCHESTER,9,1634,21634,FISHING CREEK,340
DORCHESTER,9,1643,21643,HURLOCK,340
DORCHESTER,9,1648,21648,MADISON,340
DORCHESTER,9,1659,21659,RHODESDALE,340
DORCHESTER,9,1664,21664,SECRETARY,340
DORCHESTER,9,1669,21669,TAYLORS ISLAND,340
DORCHESTER,9,1672,21672,TODDVILLE,340
DORCHESTER,9,1675,21675,WINGATE,340
DORCHESTER,9,1677,21677,WOOLFORD,340
DORCHESTER,9,1835,21835,LINKWOOD,340
DORCHESTER,9,1869,21869,VIENNA,340
FREDERICK,10,842,20842,DICKERSON,180
FREDERICK,10,871,20871,CLARKSBURG,180
FREDERICK,10,1701,21701,FREDERICK,180
FREDERICK,10,1701,21701,FT DETRICK,180
FREDERICK,10,1702,21702,FREDERICK,180
FREDERICK,10,1703,21703,FREDERICK,180
FREDERICK,10,1704,21704,FREDERICK,180
FREDERICK,10,1710,21710,ADAMSTOWN,180
FREDERICK,10,1714,21714,BRADDOCK HEIGHTS,180
FREDERICK,10,1716,21716,BRUNSWICK,180
FREDERICK,10,1717,21717,BUCKEYSTOWN,180
FREDERICK,10,1718,21718,BURKITTSVILLE,180
FREDERICK,10,1719,21719,CASCADE,180
FREDERICK,10,1727,21727,EMMITSBURG,180
FREDERICK,10,1754,21754,IJAMSVILLE,180
FREDERICK,10,1755,21755,JEFFERSON,180
FREDERICK,10,1757,21757,KEYMAR,180
FREDERICK,10,1758,21758,KNOXVILLE,180
FREDERICK,10,1759,21759,LADIESBURG,180
FREDERICK,10,1762,21762,LIBERTYTOWN,180
FREDERICK,10,1769,21769,MIDDLETOWN,180
FREDERICK,10,1770,21770,MONROVIA,180
FREDERICK,10,1771,21771,MOUNT AIRY,180
FREDERICK,10,1773,21773,MYERSVILLE,180
FREDERICK,10,1774,21774,NEW MARKET,180
FREDERICK,10,1776,21776,NEW WINDSOR,180
FREDERICK,10,1777,21777,POINT OF ROCKS,180
FREDERICK,10,1777,21777,PT OF ROCKS,180
FREDERICK,10,1778,21778,ROCKY RIDGE,180
FREDERICK,10,1780,21780,SABILLASVILLE,180
FREDERICK,10,1783,21783,SMITHSBURG,180
FREDERICK,10,1787,21787,TANEYTOWN,180
FREDERICK,10,1788,21788,THURMONT,180
FREDERICK,10,1790,21790,TUSCARORA,180
FREDERICK,10,1791,21791,UNION BRIDGE,180
FREDERICK,10,1793,21793,WALKERSVILLE,180
FREDERICK,10,1798,21798,WOODSBORO,180
GARRETT,11,1520,21520,ACCIDENT,150
GARRETT,11,1521,21521,BARTON,150
GARRETT,11,1522,21522,BITTINGER,150
GARRETT,11,1523,21523,BLOOMINGTON,150
GARRETT,11,1531,21531,FRIENDSVILLE,150
GARRETT,11,1532,21532,FROSTBURG,150
GARRETT,11,1536,21536,GRANTSVILLE,150
GARRETT,11,1538,21538,KITZMILLER,150
GARRETT,11,1539,21539,LONACONING,150
GARRETT,11,1541,21541,MCHENRY,150
GARRETT,11,1550,21550,DEER PARK,150
GARRETT,11,1550,21550,MT LAKE PARK,150
GARRETT,11,1561,21561,SWANTON,150
HARFORD,12,1001,21001,ABERDEEN,280
HARFORD,12,1005,21005,ABERDEEN PR GR,280
HARFORD,12,1009,21009,ABINGDON,280
HARFORD,12,1010,21010,GUNPOWDER,280
HARFORD,12,1013,21013,BALDWIN,280
HARFORD,12,1014,21014,BEL AIR,280
HARFORD,12,1014,21014,FAIRMONT,280
HARFORD,12,1015,21015,BEL AIR,280
HARFORD,12,1017,21017,BELCAMP,280
HARFORD,12,1028,21028,CHURCHVILLE,280
HARFORD,12,1034,21034,DARLINGTON,280
HARFORD,12,1040,21040,EDGEWOOD,280
HARFORD,12,1047,21047,FALLSTON,280
HARFORD,12,1050,21050,FOREST HILL,280
HARFORD,12,1050,21050,HICKORY,280
HARFORD,12,1078,21078,HAVRE DE GRACE,280
HARFORD,12,1084,21084,JARRETTSVILLE,280
HARFORD,12,1085,21085,JOPPA,280
HARFORD,12,1087,21087,BRADSHAW,280
HARFORD,12,1111,21111,MONKTON,280
HARFORD,12,1130,21130,PERRYMAN,280
HARFORD,12,1132,21132,PYLESVILLE,280
HARFORD,12,1154,21154,STREET,280
HARFORD,12,1160,21160,WHITEFORD,280
HARFORD,12,1161,21161,WHITE HALL,280
HOWARD,13,701,20701,ANNAPOLIS JUNC,250
HOWARD,13,723,20723,LAUREL,250
HOWARD,13,759,20759,FULTON,250
HOWARD,13,763,20763,SAVAGE,250
HOWARD,13,777,20777,HIGHLAND,250
HOWARD,13,794,20794,JESSUP,250
HOWARD,13,833,20833,BROOKEVILLE,250
HOWARD,13,1029,21029,CLARKSVILLE,250
HOWARD,13,1036,21036,DAYTON,250
HOWARD,13,1042,21042,ELLICOTT CITY,250
HOWARD,13,1043,21043,ELLICOTT CITY,250
HOWARD,13,1044,21044,COLUMBIA,250
HOWARD,13,1045,21045,COLUMBIA,250
HOWARD,13,1046,21046,COLUMBIA,250
HOWARD,13,1075,21075,ELKRIDGE,250
HOWARD,13,1076,21076,HANOVER,250
HOWARD,13,1104,21104,MARRIOTTSVILLE,250
HOWARD,13,1163,21163,WOODSTOCK,250
HOWARD,13,1723,21723,COOKSVILLE,250
HOWARD,13,1723,21723,LISBON,250
HOWARD,13,1737,21737,GLENELG,250
HOWARD,13,1738,21738,GLENWOOD,250
HOWARD,13,1765,21765,LISBON,250
HOWARD,13,1784,21784,ELDERSBURG,250
HOWARD,13,1794,21794,W FRIENDSHIP,250
HOWARD,13,1794,21794,WEST FRIENDSHIP,250
HOWARD,13,1797,21797,WOODBINE,250
KENT,14,1610,21610,BETTERTON,300
KENT,14,1620,21620,CHESTERTOWN,300
KENT,14,1635,21635,GALENA,300
KENT,14,1645,21645,KENNEDYVILLE,300
KENT,14,1650,21650,MASSEY,300
KENT,14,1651,21651,MILLINGTON,300
KENT,14,1661,21661,ROCK HALL,300
KENT,14,1667,21667,STILL POND,300
KENT,14,1678,21678,WORTON,300
MONTGOMERY,15,707,20707,LAUREL,190
MONTGOMERY,15,812,20812,GLEN ECHO,190
MONTGOMERY,15,814,20814,BETHESDA,190
MONTGOMERY,15,815,20815,BETHESDA,190
MONTGOMERY,15,815,20815,CHEVY CHASE,190
MONTGOMERY,15,816,20816,BETHESDA,190
MONTGOMERY,15,817,20817,BETHESDA,190
MONTGOMERY,15,818,20818,CABIN JOHN,190
MONTGOMERY,15,832,20832,OLNEY,190
MONTGOMERY,15,833,20833,BROOKEVILLE,190
MONTGOMERY,15,837,20837,POOLESVILLE,190
MONTGOMERY,15,838,20838,BARNESVILLE,190
MONTGOMERY,15,839,20839,BEALLSVILLE,190
MONTGOMERY,15,841,20841,BOYDS,190
MONTGOMERY,15,842,20842,DICKERSON,190
MONTGOMERY,15,850,20850,ROCKVILLE,190
MONTGOMERY,15,851,20851,ROCKVILLE,190
MONTGOMERY,15,852,20852,ROCKVILLE,190
MONTGOMERY,15,853,20853,ROCKVILLE,190
MONTGOMERY,15,854,20854,POTOMAC,190
MONTGOMERY,15,854,20854,ROCKVILLE,190
MONTGOMERY,15,855,20855,DERWOOD,190
MONTGOMERY,15,855,20855,ROCKVILLE,190
MONTGOMERY,15,860,20860,SANDY SPRING,190
MONTGOMERY,15,861,20861,ASHTON,190
MONTGOMERY,15,862,20862,BRINKLOW,190
MONTGOMERY,15,866,20866,BURTONSVILLE,190
MONTGOMERY,15,868,20868,SPENCERVILLE,190
MONTGOMERY,15,871,20871,CLARKSBURG,190
MONTGOMERY,15,872,20872,DAMASCUS,190
MONTGOMERY,15,874,20874,GERMANTOWN,190
MONTGOMERY,15,876,20876,GERMANTOWN,190
MONTGOMERY,15,877,20877,DARNESTOWN,190
MONTGOMERY,15,877,20877,GAITHERSBURG,190
MONTGOMERY,15,878,20878,DARNESTOWN,190
MONTGOMERY,15,878,20878,GAITHERSBURG,190
MONTGOMERY,15,879,20879,GAITHERSBURG,190
MONTGOMERY,15,879,20879,LAYTONSVILLE,190
MONTGOMERY,15,880,20880,WASHINGTON GROVE,190
MONTGOMERY,15,882,20882,GAITHERSBURG,190
MONTGOMERY,15,886,20886,MONTGOMERY VLG,190
MONTGOMERY,15,889,20889,BETHESDA,190
MONTGOMERY,15,895,20895,KENSINGTON,190
MONTGOMERY,15,896,20896,GARRETT PARK,190
MONTGOMERY,15,901,20901,SILVER SPRING,190
MONTGOMERY,15,901,20901,WHEATON,190
MONTGOMERY,15,902,20902,SILVER SPRING,190
MONTGOMERY,15,902,20902,WHEATON,190
MONTGOMERY,15,903,20903,SILVER SPRING,190
MONTGOMERY,15,904,20904,COLESVILLE,190
MONTGOMERY,15,904,20904,SILVER SPRING,190
MONTGOMERY,15,905,20905,SILVER SPRING,190
MONTGOMERY,15,905,20905,WHEATON,190
MONTGOMERY,15,906,20906,SILVER SPRING,190
MONTGOMERY,15,906,20906,WHEATON,190
MONTGOMERY,15,910,20910,SILVER SPRING,190
MONTGOMERY,15,912,20912,TAKOMA PARK,190
MONTGOMERY,15,1771,21771,MOUNT AIRY,190
PRINCE GEORGES,16,601,20601,WALDORF,200
PRINCE GEORGES,16,607,20607,ACCOKEEK,200
PRINCE GEORGES,16,608,20608,AQUASCO,200
PRINCE GEORGES,16,613,20613,BRANDYWINE,200
PRINCE GEORGES,16,623,20623,CHELTENHAM,200
PRINCE GEORGES,16,705,20705,BELTSVILLE,200
PRINCE GEORGES,16,706,20706,LANHAM,200
PRINCE GEORGES,16,706,20706,GLENARDEN,200
PRINCE GEORGES,16,707,20707,LAUREL,200
PRINCE GEORGES,16,708,20708,LAUREL,200
PRINCE GEORGES,16,710,20710,BLADENSBURG,200
PRINCE GEORGES,16,712,20712,MT RAINIER,200
PRINCE GEORGES,16,715,20715,BOWIE,200
PRINCE GEORGES,16,716,20716,BOWIE,200
PRINCE GEORGES,16,716,20716,MITCHELLVILLE,200
PRINCE GEORGES,16,720,20720,BOWIE,200
PRINCE GEORGES,16,721,20721,BOWIE,200
PRINCE GEORGES,16,721,20721,MITCHELLVILLE,200
PRINCE GEORGES,16,722,20722,BRENTWOOD,200
PRINCE GEORGES,16,722,20722,COLMAR MANOR,200
PRINCE GEORGES,16,735,20735,CLINTON,200
PRINCE GEORGES,16,737,20737,E RIVERDALE,200
PRINCE GEORGES,16,737,20737,EAST RIVERDALE,200
PRINCE GEORGES,16,740,20740,BERWYN HEIGHTS,200
PRINCE GEORGES,16,740,20740,COLLEGE PARK,200
PRINCE GEORGES,16,742,20742,COLLEGE PARK,200
PRINCE GEORGES,16,743,20743,CAPITAL HEIGHTS,200
PRINCE GEORGES,16,743,20743,CAPITAL HGHTS,200
PRINCE GEORGES,16,744,20744,FORT WASH,200
PRINCE GEORGES,16,744,20744,FORT WASHINGTON,200
PRINCE GEORGES,16,745,20745,FOREST HEIGHTS,200
PRINCE GEORGES,16,745,20745,OXON HILL,200
PRINCE GEORGES,16,746,20746,CAMP SPRINGS,200
PRINCE GEORGES,16,746,20746,SUITLAND,200
PRINCE GEORGES,16,747,20747,DISTRICT HEIGHTS,200
PRINCE GEORGES,16,748,20748,CAMP SPRINGS,200
PRINCE GEORGES,16,748,20748,HILLCREST HGTS,200
PRINCE GEORGES,16,752,20752,SUITLAND,200
PRINCE GEORGES,16,762,20762,ANDREWS AFB,200
PRINCE GEORGES,16,769,20769,GLENN DALE,200
PRINCE GEORGES,16,770,20770,GREENBELT,200
PRINCE GEORGES,16,772,20772,UPPER MARLBORO,200
PRINCE GEORGES,16,774,20774,LARGO,200
PRINCE GEORGES,16,774,20774,SPRINGDALE,200
PRINCE GEORGES,16,781,20781,EDMONSTON,200
PRINCE GEORGES,16,781,20781,HYATTSVILLE,200
PRINCE GEORGES,16,782,20782,HYATTSVILLE,200
PRINCE GEORGES,16,782,20782,CHILLUM,200
PRINCE GEORGES,16,783,20783,ADELPHI,200
PRINCE GEORGES,16,783,20783,CHILLUM,200
PRINCE GEORGES,16,784,20784,HYATTSVILLE,200
PRINCE GEORGES,16,784,20784,LANDOVER,200
PRINCE GEORGES,16,785,20785,CHEVERLY,200
PRINCE GEORGES,16,785,20785,HYATTSVILLE,200
PRINCE GEORGES,16,903,20903,SILVER SPRING,200
PRINCE GEORGES,16,912,20912,TAKOMA PARK,200
QUEEN ANNES,17,1607,21607,BARCLAY,310
QUEEN ANNES,17,1617,21617,CENTREVILLE,310
QUEEN ANNES,17,1619,21619,CHESTER,310
QUEEN ANNES,17,1620,21620,CHESTERTOWN,310
QUEEN ANNES,17,1623,21623,CHURCH HILL,310
QUEEN ANNES,17,1628,21628,CRUMPTON,310
QUEEN ANNES,17,1638,21638,GRASONVILLE,310
QUEEN ANNES,17,1644,21644,INGLESIDE,310
QUEEN ANNES,17,1651,21651,MILLINGTON,310
QUEEN ANNES,17,1657,21657,QUEEN ANNE,310
QUEEN ANNES,17,1658,21658,QUEENSTOWN,310
QUEEN ANNES,17,1666,21666,STEVENSVILLE,310
QUEEN ANNES,17,1668,21668,SUDLERSVILLE,310
QUEEN ANNES,17,1679,21679,WYE MILLS,310
SAINT MARYS,18,606,20606,ABELL,220
SAINT MARYS,18,609,20609,AVENUE,220
SAINT MARYS,18,618,20618,BUSHWOOD,220
SAINT MARYS,18,619,20619,CALIFORNIA,220
SAINT MARYS,18,620,20620,CALLAWAY,220
SAINT MARYS,18,620,20620,ST MARY,220
SAINT MARYS,18,621,20621,CHAPTICO,220
SAINT MARYS,18,622,20622,CHARLOTTE HALL,220
SAINT MARYS,18,624,20624,CLEMENTS,220
SAINT MARYS,18,626,20626,COLTONS POINT,220
SAINT MARYS,18,628,20628,DAMERON,220
SAINT MARYS,18,630,20630,DRAYDEN,220
SAINT MARYS,18,634,20634,GREAT MILLS,220
SAINT MARYS,18,636,20636,HOLLYWOOD,220
SAINT MARYS,18,650,20650,LEONARDTOWN,220
SAINT MARYS,18,653,20653,LEXINGTON PARK,220
SAINT MARYS,18,653,20653,LEXINGTON PK,220
SAINT MARYS,18,656,20656,LOVEVILLE,220
SAINT MARYS,18,659,20659,MECHANICSVILLE,220
SAINT MARYS,18,667,20667,PARK HALL,220
SAINT MARYS,18,670,20670,NAS PAT RIVER,220
SAINT MARYS,18,670,20670,PATUXENT RIVER,220
SAINT MARYS,18,674,20674,PINEY POINT,220
SAINT MARYS,18,680,20680,RIDGE,220
SAINT MARYS,18,684,20684,ST INIGOES,220
SAINT MARYS,18,687,20687,SCOTLAND,220
SAINT MARYS,18,690,20690,TALL TIMBERS,220
SAINT MARYS,18,692,20692,VALLEY LEE,220
SOMERSET,19,1817,21817,CRISFIELD,360
SOMERSET,19,1821,21821,CHANCE,360
SOMERSET,19,1821,21821,DAMES QUARTER,360
SOMERSET,19,1822,21822,EDEN,360
SOMERSET,19,1824,21824,EWELL,360
SOMERSET,19,1836,21836,MANOKIN,360
SOMERSET,19,1838,21838,MARION,360
SOMERSET,19,1838,21838,MARION STATION,360
SOMERSET,19,1851,21851,POCOMOKE,360
SOMERSET,19,1853,21853,PRINCESS ANNE,360
SOMERSET,19,1866,21866,TYLERTON,360
SOMERSET,19,1867,21867,UPPER FAIRMOUNT,360
SOMERSET,19,1871,21871,FAIRMOUNT,360
SOMERSET,19,1871,21871,WESTOVER,360
TALBOT,20,1601,21601,EASTON,320
TALBOT,20,1612,21612,BOZMAN,320
TALBOT,20,1624,21624,CLAIBORNE,320
TALBOT,20,1625,21625,CORDOVA,320
TALBOT,20,1647,21647,MCDANIEL,320
TALBOT,20,1652,21652,NEAVITT,320
TALBOT,20,1653,21653,NEWCOMB,320
TALBOT,20,1654,21654,OXFORD,320
TALBOT,20,1657,21657,QUEEN ANNE,320
TALBOT,20,1662,21662,ROYAL OAK,320
TALBOT,20,1663,21663,ST MICHAELS,320
TALBOT,20,1665,21665,SHERWOOD,320
TALBOT,20,1671,21671,TILGHMAN,320
TALBOT,20,1673,21673,TRAPPE,320
TALBOT,20,1676,21676,WITTMAN,320
TALBOT,20,1679,21679,WYE MILLS,320
WASHINGTON,21,1711,21711,BIG POOL,170
WASHINGTON,21,1713,21713,BOONSBORO,170
WASHINGTON,21,1715,21715,BROWNSVILLE,170
WASHINGTON,21,1719,21719,CASCADE,170
WASHINGTON,21,1722,21722,BIG SPRING,170
WASHINGTON,21,1722,21722,CLEAR SPRING,170
WASHINGTON,21,1733,21733,FAIRPLAY,170
WASHINGTON,21,1734,21734,FUNKSTOWN,170
WASHINGTON,21,1740,21740,HAGERSTOWN,170
WASHINGTON,21,1742,21742,HAGERSTOWN,170
WASHINGTON,21,1750,21750,HANCOCK,170
WASHINGTON,21,1756,21756,KEEDYSVILLE,170
WASHINGTON,21,1758,21758,KNOXVILLE,170
WASHINGTON,21,1767,21767,MAUGANSVILLE,170
WASHINGTON,21,1779,21779,GAPLAND,170
WASHINGTON,21,1779,21779,ROHRERSVILLE,170
WASHINGTON,21,1780,21780,SABILLASVILLE,170
WASHINGTON,21,1782,21782,SHARPSBURG,170
WASHINGTON,21,1783,21783,SMITHSBURG,170
WASHINGTON,21,1795,21795,WILLIAMSPORT,170
WICOMICO,22,1801,21801,SALISBURY,350
WICOMICO,22,1804,21804,SALISBURY,350
WICOMICO,22,1810,21810,ALLEN,350
WICOMICO,22,1814,21814,BIVALVE,350
WICOMICO,22,1822,21822,EDEN,350
WICOMICO,22,1826,21826,FRUITLAND,350
WICOMICO,22,1830,21830,HEBRON,350
WICOMICO,22,1837,21837,MARDELA,350
WICOMICO,22,1837,21837,MARDELA SPGS,350
WICOMICO,22,1840,21840,NANTICOKE,350
WICOMICO,22,1849,21849,PARSONSBURG,350
WICOMICO,22,1850,21850,PITTSVILLE,350
WICOMICO,22,1856,21856,QUANTICO,350
WICOMICO,22,1861,21861,SHARPTOWN,350
WICOMICO,22,1865,21865,TYASKIN,350
WICOMICO,22,1874,21874,WILLARDS,350
WICOMICO,22,1875,21875,DELMAR,350
WORCHESTER,23,1811,21811,BERLIN,370
WORCHESTER,23,1813,21813,BISHOPVILLE,370
WORCHESTER,23,1829,21829,GIRDLETREE,370
WORCHESTER,23,1841,21841,NEWARK,370
WORCHESTER,23,1842,21842,OCEAN CITY,370
WORCHESTER,23,1851,21851,POCOMOKE,370
WORCHESTER,23,1862,21862,SHOWELL,370
WORCHESTER,23,1863,21863,SNOW HILL,370
WORCHESTER,23,1864,21864,STOCKTON,370
WORCHESTER,23,1872,21872,WHALEYSVILLE,370
